GSAT-18                 
1 41793U 16060A   26159.07316128 -.00000061  00000+0  00000+0 0  9994
2 41793   0.0412 117.8191 0005760 312.6827 286.2985  1.00271309 35436
SKY MUSTER 2 (NBN1B)    
1 41794U 16060B   26158.65945995 -.00000229  00000+0  00000+0 0  9994
2 41794   0.0151 308.0787 0001610 124.8736 205.3230  1.00272411 35423
HIMAWARI-9              
1 41836U 16064A   26159.30030774 -.00000259  00000+0  00000+0 0  9991
2 41836   0.0317 158.6712 0000870 317.7451  29.1608  1.00272860 35121
SHIJIAN-17 (SJ-17)      
1 41838U 16065A   26158.89413235  .00000016  00000+0  00000+0 0  9994
2 41838   5.7283  72.7158 0001954  23.4963  11.7304  0.99853674 35114
GOES 16                 
1 41866U 16071A   26159.25171122 -.00000075  00000+0  00000+0 0  9995
2 41866   0.3168  85.6172 0000457 315.2230 201.7536  1.00270713 35010
TIANLIAN 1-04           
1 41869U 16072A   26159.23617684  .00000046  00000+0  00000+0 0  9992
2 41869   0.8459  82.9549 0041864  89.7472 345.7726  1.00269507 35218
WGS F8 (USA 272)        
1 41879U 16075A   26158.33169957 -.00000188  00000+0  00000+0 0  9999
2 41879   0.0110  76.7831 0000157 263.0063 185.1797  1.00269884 34720
FENGYUN 4A              
1 41882U 16077A   26159.29692773 -.00000341  00000+0  00000+0 0  9999
2 41882   2.2994  80.3795 0008261 151.5371 255.4388  1.00274132 34847
ECHOSTAR 19             
1 41893U 16079A   26158.32625841 -.00000124  00000+0  00000+0 0  9997
2 41893   0.0177   0.2276 0001396  84.0179 191.8554  1.00271514 34604
JCSAT-110A (JCSAT-15)   
1 41903U 16082A   26158.89799244 -.00000336  00000+0  00000+0 0  9999
2 41903   0.0173 336.3997 0000781 126.2772 226.9676  1.00275761 34669
STAR ONE D1             
1 41904U 16082B   26158.32894509 -.00000196  00000+0  00000+0 0  9992
2 41904   0.0154  45.9307 0002125  43.7579 200.4437  1.00269496 34670
TJS-2                   
1 41911U 17001A   26159.14836492  .00000009  00000+0  00000+0 0  9992
2 41911   0.8090  85.4565 0000675  22.8069 268.2340  1.00272607 34628
SBIRS GEO-4 (USA 273)   
1 41937U 17004A   26159.27657999  .00000139  00000+0  00000+0 0  9994
2 41937   2.2253  43.0212 0002201  30.1360 303.9866  1.00272029 34500
HISPASAT 36W-1          
1 41942U 17006A   26158.40972185 -.00000229  00000+0  00000+0 0  9994
2 41942   0.0250 204.5529 0001345 243.5935 279.1752  1.00277541 34142
TELKOM 3S               
1 41944U 17007A   26159.29580106 -.00000347  00000+0  00000+0 0  9994
2 41944   0.0190 306.2130 0002302 134.1803  40.7976  1.00270368 34058
INTELSAT 32E (IS-32E)   
1 41945U 17007B   26158.76481039 -.00000254  00000+0  00000+0 0  9998
2 41945   0.0010 354.1974 0000678 347.1216 147.0062  1.00270608 34139
ECHOSTAR 23             
1 42070U 17014A   26158.46642903  .00000000  00000+0  00000+0 0  9990
2 42070   0.0179 343.9352 0001742  97.2622 232.6885  1.00268374 33824
WGS F9 (USA 275)        
1 42075U 17016A   26158.69966119 -.00000082  00000+0  00000+0 0  9991
2 42075   0.0095 280.2284 0000348 165.7272  50.0314  1.00270650 33803
SES-10                  
1 42432U 17017A   26158.83139666 -.00000258  00000+0  00000+0 0  9999
2 42432   0.0206  32.3181 0002893  54.8206  41.5067  1.00271620 33660
CHINASAT 16 (SJ-13)     
1 42662U 17018A   26158.69237051 -.00000337  00000+0  00000+0 0  9994
2 42662   0.0974  91.4359 0003963 138.2362  26.2183  1.00274073 33652
KOREASAT 7              
1 42691U 17023A   26159.01019635 -.00000347  00000+0  00000+0 0  9996
2 42691   0.0189 346.8803 0000534  67.7211 321.3628  1.00272045 33271
SGDC                    
1 42692U 17023B   26158.49717919 -.00000235  00000+0  00000+0 0  9994
2 42692   0.0249  58.8988 0002845  27.2607 273.8812  1.00272417 33303
GSAT-9                  
1 42695U 17024A   26159.07758131 -.00000271  00000+0  00000+0 0  9994
2 42695   0.0120 301.6235 0002538 130.8610 309.2607  1.00272940 33208
INMARSAT 5-F4           
1 42698U 17025A   26158.49937209  .00000089  00000+0  00000+0 0  9994
2 42698   0.0177 354.1064 0000114 199.5792 298.4718  1.00273861 33189
SES-15                  
1 42709U 17026A   26159.27666903  .00000075  00000+0  00000+0 0  9990
2 42709   0.0197 331.2013 0000540  87.9187 167.9996  1.00269869  7345
QZS-2 (MICHIBIKI-2)     
1 42738U 17028A   26158.57536786 -.00000151  00000+0  00000+0 0  9997
2 42738  39.4419 243.2963 0760585 269.1564  91.9396  1.00286521  7536
VIASAT-2                
1 42740U 17029A   26158.33171844 -.00000251  00000+0  00000+0 0  9996
2 42740   0.0179 291.0744 0000302 148.4673 225.7314  1.00271397 33102
EUTELSAT 172B           
1 42741U 17029B   26159.29678128  .00000010  00000+0  00000+0 0  9992
2 42741   0.0287 118.1319 0000053  56.2545   1.1470  1.00271616 33650
GSAT-19                 
1 42747U 17031A   26159.21059318  .00000141  00000+0  00000+0 0  9992
2 42747   0.1091  90.8073 0006949 350.1590 299.3108  1.00271285 33054
ECHOSTAR 21             
1 42749U 17032A   26159.27441331  .00000079  00000+0  00000+0 0  9991
2 42749   1.7718 355.0930 0002302  86.8561 283.7737  1.00271010 33014
BULGARIASAT-1           
1 42801U 17038A   26158.98758117  .00000026  00000+0  00000+0 0  9998
2 42801   0.0228 279.1205 0003590 172.0963 162.5923  1.00268650 32753
